OBJECT_NAME,OBJECT_ID,EPOCH,MEAN_MOTION,ECCENTRICITY,INCLINATION,RA_OF_ASC_NODE,ARG_OF_PERICENTER,MEAN_ANOMALY,EPHEMERIS_TYPE,CLASSIFICATION_TYPE,NORAD_CAT_ID,ELEMENT_SET_NO,REV_AT_EPOCH,BSTAR,MEAN_MOTION_DOT,MEAN_MOTION_DDOT
SITRO-AIS 8 (ANOKHIN),2023-091AD,2026-07-18T07:07:55.995168,15.32904899,.00091859,97.5035,265.2229,356.5809,3.5369,0,U,57193,999,16921,.21058218E-3,.6619E-4,0
SITRO-AIS 7 (FARTUSHNIY),2023-091AE,2026-07-18T06:23:37.272768,15.26142582,.0010815,97.5044,262.2333,7.1406,352.9984,0,U,57194,999,16901,.19249399E-3,.4903E-4,0
AVION KALUGA 650,2023-091AF,2026-07-18T06:57:30.155904,15.20649850,.00101228,97.5069,258.7437,11.9190,348.2283,0,U,57195,999,16875,.12616383E-3,.2702E-4,0
HORS 2,2023-091AG,2026-07-18T05:58:44.730912,15.32606387,.00065177,97.5067,266.7159,343.2796,16.8230,0,U,57196,999,16928,.2184109E-3,.68E-4,0
A-SEANSAT-PG1,2023-091AH,2026-07-18T06:01:43.699872,15.37947201,.00053854,97.5060,269.5160,336.4733,23.6265,0,U,57197,999,16948,.26926064E-3,.9969E-4,0
SITRO-AIS 10 (BURDAEV),2023-091AK,2026-07-18T06:13:51.276864,15.39697082,.00046057,97.5060,270.5678,327.4745,32.6216,0,U,57199,999,16954,.2698853E-3,.10581E-3,0
SITRO-AIS 9 (SHCHUKIN),2023-091AM,2026-07-18T03:59:16.154016,15.39178614,.00048839,97.5060,270.1770,328.6795,31.4159,0,U,57201,999,16951,.26493522E-3,.1021E-3,0
UTMN 2 (RS27S),2023-091AP,2026-07-18T04:59:35.253888,15.32743949,.00064357,97.5067,266.8723,338.4220,21.6750,0,U,57203,999,16929,.22139117E-3,.6924E-4,0
SITRO-AIS 12 (SMIRENNIY),2023-091AQ,2026-07-18T03:37:15.600864,15.39474023,.00044638,97.5072,270.6481,320.5732,39.5188,0,U,57204,999,16953,.28708792E-3,.11179E-3,0
SITRO-AIS 11 (SHEFFER),2023-091AU,2026-07-18T05:17:33.078336,15.39921386,.00044,97.5070,270.9861,319.5320,40.5598,0,U,57208,999,16956,.28211133E-3,.11146E-3,0
H2SAT (HEINRICH HERTZ),2023-093A,2026-07-18T02:18:38.678400,1.00270990,.00001682,0.0259,101.2408,31.9153,198.0918,0,U,57213,999,1122,0,-.7E-7,0
KUZGTU 1 (RS47S),2023-091AV,2026-07-18T07:00:07.649280,15.30510087,.00097577,97.5042,264.1006,354.9710,5.1431,0,U,57217,999,16913,.20757874E-3,.6052E-4,0
QIANKUN-1,2023-103B,2026-07-16T14:42:06.791040,16.07858994,.0035589,96.1400,240.3808,130.8922,229.5456,0,U,57422,999,17202,.75371E-5,.6165E-4,.16552E-5
FENGYUN 3F,2023-111A,2026-07-18T07:56:57.052032,14.19943744,.00012112,98.6823,268.7575,75.7169,284.4142,0,U,57490,999,15328,.22263533E-4,.4E-7,0
HJ-2F,2023-116A,2026-07-18T06:33:25.412256,15.22718786,.00064146,97.3851,203.9600,299.1121,60.9473,0,U,57519,999,16348,.15818577E-3,.362E-4,0
XRISM,2023-137A,2026-07-18T04:56:11.328288,15.12682622,.00078538,31.0010,158.6362,276.0934,83.8810,0,U,57800,999,15756,.12223057E-3,.2291E-4,0
METEOR-M2 4,2024-039A,2026-07-18T06:35:22.958592,14.22432322,.00082552,98.7027,158.1849,81.1879,279.0233,0,U,59051,999,12368,.13380288E-4,-.14E-6,0
GRBBETA,2024-128C,2026-07-18T03:29:49.303392,15.06819541,.00366939,61.9888,107.6324,141.3297,219.0434,0,U,60237,999,11093,.12491036E-3,.1676E-4,0
TRANSPORTER-11 OBJECT A,2024-149A,2026-07-18T03:43:50.904192,15.33367213,.00049637,97.3722,278.9974,109.1450,251.0330,0,U,60468,999,10680,.14309792E-3,.4536E-4,0
WARATAH SEED-1,2024-149B,2026-07-18T04:18:13.311072,15.36663042,.00032946,97.3677,279.7975,115.1480,245.0106,0,U,60469,999,10687,.20419573E-3,.723E-4,0
PHISAT 2,2024-149C,2026-07-18T03:39:59.245920,15.31458596,.00032982,97.3747,278.2035,117.6314,242.5263,0,U,60470,999,10673,.19065505E-3,.5715E-4,0
LEMUR-2-TOMATOKECHUP,2024-149D,2026-07-18T04:12:15.990912,15.36619049,.0003402,97.3790,281.3129,116.6950,243.4643,0,U,60471,999,10692,.16424172E-3,.579E-4,0
CONNECTA IOT-1,2024-149E,2026-07-18T03:49:44.282784,15.23755055,.00030149,97.3747,274.9305,135.9001,224.2478,0,U,60472,999,10651,.91712364E-4,.2135E-4,0
LOPEN,2024-149F,2026-07-18T04:29:14.010144,15.40516620,.00029717,97.3769,282.8147,128.6191,231.5322,0,U,60473,999,10703,.21267287E-3,.8546E-4,0
ROCK,2024-149G,2026-07-18T04:10:10.086240,15.40504227,.00032713,97.3765,282.8151,126.3666,233.7882,0,U,60474,999,10703,.20891792E-3,.8391E-4,0
CONNECTA IOT-3,2024-149H,2026-07-18T04:20:08.773440,15.23768721,.00041797,97.3721,274.6948,136.1222,224.0347,0,U,60475,999,10652,.89081278E-4,.2073E-4,0
QUBE,2024-149J,2026-07-18T03:19:05.267424,15.48592544,.00033594,97.3771,286.1998,123.6630,236.4941,0,U,60476,999,10725,.26690795E-3,.14154E-3,0
WREN-1,2024-149L,2026-07-18T03:36:05.282496,15.42699024,.0005506,97.3757,283.6131,142.2123,217.9512,0,U,60478,999,10709,.26622972E-3,.11537E-3,0
TOMORROW-S1,2024-149M,2026-07-18T03:25:38.710560,15.33116471,.00041972,97.3740,279.5248,124.5841,235.5798,0,U,60479,999,10683,.12342105E-3,.387E-4,0
